H1 CPF 01  gfz 2021 06 24 00  6751 tandemx   
H2 1003001  6202 36605    2021 06 24 00 59 42 2021 06 29 00 00 42   120 1 1  0 0 0
H9
10 0 59389  20142.000000  0   -5617004.846  -1136536.240  -3831015.603
10 0 59389  20262.000000  0   -6094092.584  -1033326.336  -3050286.224
10 0 59389  20382.000000  0   -6462951.131   -904704.739  -2216022.271
10 0 59389  20502.000000  0   -6716632.506   -754851.992  -1342828.074
10 0 59389  20622.000000  0   -6850280.194   -588429.656   -446024.767
10 0 59389  20742.000000  0   -6861232.319   -410460.816    458624.394
10 0 59389  20862.000000  0   -6749080.548   -226202.213   1355197.773
10 0 59389  20982.000000  0   -6515685.239    -41011.754   2227904.321
10 0 59389  21102.000000  0   -6165144.014    139786.290   3061370.970
10 0 59389  21222.000000  0   -5703714.923    311034.815   3840921.784
10 0 59389  21342.000000  0   -5139696.133    467872.392   4552841.947
10 0 59389  21462.000000  0   -4483266.483    605853.189   5184621.275
10 0 59389  21582.000000  0   -3746291.586    721056.168   5725172.500
10 0 59389  21702.000000  0   -2942100.555    810180.712   6165022.898
10 0 59389  21822.000000  0   -2085237.075    870626.190   6496475.679
10 0 59389  21942.000000  0   -1191190.206    900555.374   6713739.325
10 0 59389  22062.000000  0    -276110.719    898939.585   6813021.755
10 0 59389  22182.000000  0     643480.695    865584.695   6792591.583
10 0 59389  22302.000000  0    1550990.525    801138.092   6652806.226
10 0 59389  22422.000000  0    2430050.678    707076.610   6396106.199
10 0 59389  22542.000000  0    3264813.210    585675.148   6026975.878
10 0 59389  22662.000000  0    4040238.241    439956.470   5551870.158
10 0 59389  22782.000000  0    4742368.465    273623.204   4979107.176
10 0 59389  22902.000000  0    5358586.137     90972.280   4318728.900
10 0 59389  23022.000000  0    5877848.806   -103205.467   3582330.315
10 0 59389  23142.000000  0    6290897.876   -303737.993   2782858.129
10 0 59389  23262.000000  0    6590434.031   -505195.707   1934381.660
10 0 59389  23382.000000  0    6771253.831   -702024.053   1051841.858
10 0 59389  23502.000000  0    6830347.415   -888679.886    150782.923
10 0 59389  23622.000000  0    6766952.865  -1059768.945   -752930.298
10 0 59389  23742.000000  0    6582562.948  -1210181.320  -1643401.223
10 0 59389  23862.000000  0    6280887.089  -1335220.597  -2504989.429
10 0 59389  23982.000000  0    5867768.603  -1430723.847  -3322591.641
10 0 59389  24102.000000  0    5351060.998  -1493169.404  -4081909.489
10 0 59389  24222.000000  0    4740466.851  -1519769.383  -4769698.944
10 0 59389  24342.000000  0    4047344.390  -1508545.601  -5373997.198
10 0 59389  24462.000000  0    3284485.779  -1458388.060  -5884323.515
10 0 59389  24582.000000  0    2465873.336  -1369093.954  -6291850.273
10 0 59389  24702.000000  0    1606420.193  -1241386.310  -6589544.605
10 0 59389  24822.000000  0     721698.150  -1076913.156  -6772279.079
10 0 59389  24942.000000  0    -172341.220   -878227.990  -6836910.579
10 0 59389  25062.000000  0   -1059648.444   -648750.536  -6782327.974
10 0 59389  25182.000000  0   -1924357.373   -392709.209  -6609469.527
10 0 59389  25302.000000  0   -2751062.727   -115065.083  -6321307.634
10 0 59389  25422.000000  0   -3525087.929    178580.392  -5922802.696
10 0 59389  25542.000000  0   -4232742.769    482093.744  -5420828.041
10 0 59389  25662.000000  0   -4861566.876    788931.792  -4824061.969
10 0 59389  25782.000000  0   -5400553.991   1092276.091  -4142850.431
10 0 59389  25902.000000  0   -5840354.113   1385178.855  -3389038.261
10 0 59389  26022.000000  0   -6173446.543   1660715.549  -2575770.909
10 0 59389  26142.000000  0   -6394280.752   1912140.953  -1717269.894
10 0 59389  26262.000000  0   -6499381.455   2133045.866   -828585.092
10 0 59389  26382.000000  0   -6487413.656   2317509.967     74672.957
10 0 59389  26502.000000  0   -6359204.459   2460246.438    976614.257
10 0 59389  26622.000000  0   -6117721.139   2556735.525   1861356.965
10 0 59389  26742.000000  0   -5768005.934   2603343.251   2713316.403
10 0 59389  26862.000000  0   -5317068.921   2597421.319   3517487.832
10 0 59389  26982.000000  0   -4773742.086   2537385.640   4259717.910
10 0 59389  27102.000000  0   -4148497.934   2422772.030   4926956.956
10 0 59389  27222.000000  0   -3453239.719   2254268.386   5507488.342
10 0 59389  27342.000000  0   -2701067.388   2033723.040   5991132.654
10 0 59389  27462.000000  0   -1906022.957   1764128.508   6369422.513
10 0 59389  27582.000000  0   -1082822.422   1449580.848   6635744.868
10 0 59389  27702.000000  0    -246580.302   1095216.216   6785449.160
10 0 59389  27822.000000  0     587467.606    707125.956   6815922.872
10 0 59389  27942.000000  0    1404240.898    292251.630   6726634.163
10 0 59389  28062.000000  0    2189085.917   -141738.442   6519140.594
10 0 59389  28182.000000  0    2928037.938   -586590.205   6197064.765
10 0 59389  28302.000000  0    3608071.113  -1033619.714   5766035.663
10 0 59389  28422.000000  0    4217331.726  -1473881.440   5233595.691
10 0 59389  28542.000000  0    4745349.287  -1898346.736   4609074.212
10 0 59389  28662.000000  0    5183223.411  -2298088.144   3903430.257
10 0 59389  28782.000000  0    5523783.187  -2664466.988   3129063.804
10 0 59389  28902.000000  0    5761712.387  -2989319.490   2299597.331
10 0 59389  29022.000000  0    5893637.912  -3265136.654   1429634.255
10 0 59389  29142.000000  0    5918181.402  -3485234.692    534497.292
10 0 59389  29262.000000  0    5835969.421  -3643909.925   -370049.339
10 0 59389  29382.000000  0    5649604.132  -3736575.201  -1268086.134
10 0 59389  29502.000000  0    5363592.473  -3759872.871  -2143828.277
10 0 59389  29622.000000  0    4984237.719  -3711762.437  -2981909.878
10 0 59389  29742.000000  0    4519496.714  -3591581.691  -3767658.365
10 0 59389  29862.000000  0    3978806.135  -3400079.154  -4487352.642
10 0 59389  29982.000000  0    3372883.150  -3139417.758  -5128460.341
10 0 59389  30102.000000  0    2713505.806  -2813149.616  -5679849.237
10 0 59389  30222.000000  0    2013279.853  -2426165.174  -6131970.155
10 0 59389  30342.000000  0    1285396.522  -1984617.717  -6477012.567
10 0 59389  30462.000000  0     543383.590  -1495822.065  -6709029.728
10 0 59389  30582.000000  0    -199143.563   -968131.941  -6824030.175
10 0 59389  30702.000000  0    -928726.664   -410798.560  -6820038.001
10 0 59389  30822.000000  0   -1632302.445    166188.028  -6697122.866
10 0 59389  30942.000000  0   -2297431.260    752273.611  -6457398.192
10 0 59389  31062.000000  0   -2912511.801   1336527.619  -6104988.626
10 0 59389  31182.000000  0   -3466980.179   1907841.843  -5645967.234
10 0 59389  31302.000000  0   -3951492.254   2455137.732  -5088262.616
10 0 59389  31422.000000  0   -4358085.679   2967579.695  -4441533.325
10 0 59389  31542.000000  0   -4680316.516   3434789.330  -3717010.409
10 0 59389  31662.000000  0   -4913368.281   3847056.854  -2927312.228
10 0 59389  31782.000000  0   -5054131.672   4195545.668  -2086230.918
10 0 59389  31902.000000  0   -5101251.452   4472483.990  -1208494.353
10 0 59389  32022.000000  0   -5055139.899   4671339.835   -309507.085
10 0 59389  32142.000000  0   -4917954.280   4786974.155    594925.215
10 0 59389  32262.000000  0   -4693538.569   4815767.121   1488882.004
10 0 59389  32382.000000  0   -4387330.521   4755713.120   2356617.942
10 0 59389  32502.000000  0   -4006235.416   4606483.377   3182849.203
10 0 59389  32622.000000  0   -3558471.285   4369454.352   3953029.573
10 0 59389  32742.000000  0   -3053390.374   4047701.354   4653611.088
10 0 59389  32862.000000  0   -2501280.838   3645958.155   5272284.901
10 0 59389  32982.000000  0   -1913152.803   3170542.897   5798196.917
10 0 59389  33102.000000  0   -1300514.700   2629253.029   6222134.544
10 0 59389  33222.000000  0    -675144.840   2031231.404   6536681.806
10 0 59389  33342.000000  0     -48864.971   1386808.063   6736341.783
10 0 59389  33462.000000  0     566682.979    707319.482   6817627.949
10 0 59389  33582.000000  0    1160252.806      4908.560   6779120.439
10 0 59389  33702.000000  0    1721198.319   -707691.438   6621489.779
10 0 59389  33822.000000  0    2239663.824  -1417387.348   6347486.458
10 0 59389  33942.000000  0    2706757.717  -2110965.786   5961896.607
10 0 59389  34062.000000  0    3114707.490  -2775339.972   5471463.904
10 0 59389  34182.000000  0    3456991.932  -3397798.356   4884777.148
10 0 59389  34302.000000  0    3728448.945  -3966251.268   4212125.784
10 0 59389  34422.000000  0    3925357.301  -4469470.682   3465323.584
10 0 59389  34542.000000  0    4045488.970  -4897317.811   2657502.775
10 0 59389  34662.000000  0    4088131.674  -5240953.222   1802882.092
10 0 59389  34782.000000  0    4054080.415  -5493023.790    916512.260
10 0 59389  34902.000000  0    3945597.436  -5647821.242     14004.217
10 0 59389  35022.000000  0    3766343.063  -5701409.095   -888752.835
10 0 59389  35142.000000  0    3521277.593  -5651715.264  -1775880.956
10 0 59389  35262.000000  0    3216536.473  -5498585.276  -2631800.711
10 0 59389  35382.000000  0    2859284.076  -5243797.676  -3441511.080
10 0 59389  35502.000000  0    2457547.795  -4891039.851  -4190856.142
10 0 59389  35622.000000  0    2020037.811  -4445846.183  -4866771.687
10 0 59389  35742.000000  0    1555958.396  -3915500.882  -5457507.701
10 0 59389  35862.000000  0    1074815.740  -3308909.244  -5952823.950
10 0 59389  35982.000000  0     586224.753  -2636441.159  -6344157.051
10 0 59389  36102.000000  0      99719.059  -1909749.260  -6624757.474
10 0 59389  36222.000000  0    -375431.341  -1141564.996  -6789795.038
10 0 59389  36342.000000  0    -830391.638   -345476.861  -6836433.204
10 0 59389  36462.000000  0   -1256921.918    464305.801  -6763871.850
10 0 59389  36582.000000  0   -1647522.958   1273199.749  -6573358.784
99
